[{"OBJECT_NAME":"SITRO-AIS 21","OBJECT_ID":"2024-199E","EPOCH":"2026-03-09T22:38:47.668992","MEAN_MOTION":14.94747634,"ECCENTRICITY":0.00136926,"INCLINATION":97.333,"RA_OF_ASC_NODE":273.2344,"ARG_OF_PERICENTER":42.1108,"MEAN_ANOMALY":318.1163,"EPHEMERIS_TYPE":0,"CLASSIFICATION_TYPE":"U","NORAD_CAT_ID":61739,"ELEMENT_SET_NO":999,"REV_AT_EPOCH":11692,"BSTAR":0.00018121744,"MEAN_MOTION_DOT":1.92e-5,"MEAN_MOTION_DDOT":0},{"OBJECT_NAME":"STARLINK-34089","OBJECT_ID":"2025-102T","EPOCH":"2026-03-09T12:46:59.695968","MEAN_MOTION":14.98352565,"ECCENTRICITY":0.00033576,"INCLINATION":70.0009,"RA_OF_ASC_NODE":115.0499,"ARG_OF_PERICENTER":269.0901,"MEAN_ANOMALY":90.9874,"EPHEMERIS_TYPE":0,"CLASSIFICATION_TYPE":"U","NORAD_CAT_ID":64039,"ELEMENT_SET_NO":999,"REV_AT_EPOCH":4592,"BSTAR":0.00043099448,"MEAN_MOTION_DOT":5.056e-5,"MEAN_MOTION_DDOT":0}]
